[{"OBJECT_NAME":"CELESTIS-17 & SHERPA-FX1","OBJECT_ID":"2021-006CB","EPOCH":"2026-03-09T15:26:05.078112","MEAN_MOTION":15.30994801,"ECCENTRICITY":0.000663,"INCLINATION":97.2397,"RA_OF_ASC_NODE":112.1052,"ARG_OF_PERICENTER":178.1385,"MEAN_ANOMALY":181.9882,"EPHEMERIS_TYPE":0,"CLASSIFICATION_TYPE":"U","NORAD_CAT_ID":47486,"ELEMENT_SET_NO":999,"REV_AT_EPOCH":28406,"BSTAR":0.00024301,"MEAN_MOTION_DOT":7.207e-5,"MEAN_MOTION_DDOT":0},{"OBJECT_NAME":"STARLINK-31493","OBJECT_ID":"2024-057K","EPOCH":"2026-03-09T15:29:07.391616","MEAN_MOTION":15.27577663,"ECCENTRICITY":0.00010343,"INCLINATION":43.0016,"RA_OF_ASC_NODE":187.2126,"ARG_OF_PERICENTER":252.6134,"MEAN_ANOMALY":107.4605,"EPHEMERIS_TYPE":0,"CLASSIFICATION_TYPE":"U","NORAD_CAT_ID":59329,"ELEMENT_SET_NO":999,"REV_AT_EPOCH":10983,"BSTAR":-1.1899621e-5,"MEAN_MOTION_DOT":-5.89e-6,"MEAN_MOTION_DDOT":0}]
