CELESTIS-17 & SHERPA-FX1
1 47486U 21006CB  26068.64311433  .00007207  00000+0  24301-3 0  9993
2 47486  97.2397 112.1052 0006630 178.1385 181.9882 15.30994801284065
STARLINK-31493          
1 59329U 24057K   26068.64522443 -.00000589  00000+0 -11900-4 0  9996
2 59329  43.0016 187.2126 0001034 252.6134 107.4605 15.27577663109835
